ONEWEB-0128             
1 47274U 20100S   24152.51659516 -.00000311  00000+0 -89948-3 0  9996
2 47274  87.8937 139.3396 0002318  89.5087 270.6307 13.12436537166804
ONEWEB-0129             
1 47275U 20100T   24152.49585862  .00000472  00000+0  12754-2 0  9992
2 47275  87.8929 139.3117 0002750  50.2603 309.8767 13.12474244166730
ONEWEB-0130             
1 47276U 20100U   24152.52424224  .00000615  00000+0  16698-2 0  9991
2 47276  87.8928 139.3140 0002262  83.6676 276.4711 13.12568908166700
ONEWEB-0131             
1 47277U 20100V   24152.44479534  .00004321  00000+0  11951-1 0  9991
2 47277  87.8942 139.3445 0002612  96.1837 263.9589 13.12555222166734
ONEWEB-0132             
1 47278U 20100W   24152.47351295  .00000096  00000+0  23066-3 0  9995
2 47278  87.8931 139.3405 0002041  95.8147 264.3214 13.12524230166639
ONEWEB-0133             
1 47279U 20100X   24152.48946035  .00000429  00000+0  11551-2 0  9994
2 47279  87.8924 139.3371 0002145  90.6391 269.4983 13.12489356166798
ONEWEB-0134             
1 47280U 20100Y   24152.45914198  .00000401  00000+0  10772-2 0  9992
2 47280  87.8924 139.3310 0002225  86.6727 273.4656 13.12547471166762
ONEWEB-0135             
1 47281U 20100Z   24152.50418104  .00000251  00000+0  66377-3 0  9991
2 47281  87.8928 139.3371 0002559  87.5980 272.5441 13.12307390166794
